ONEWEB-0129             
1 47275U 20100T   26203.84176875  .00000419  00000+0  11300-2 0  9997
2 47275  87.8981 343.5699 0002851  85.5355 274.6099 13.12442255269355
ONEWEB-0130             
1 47276U 20100U   26204.32628895 -.00000178  00000+0 -52995-3 0  9996
2 47276  87.8982 343.4692 0001933  98.8584 261.2763 13.12441983269380
ONEWEB-0131             
1 47277U 20100V   26204.32290554 -.00000049  00000+0 -17029-3 0  9990
2 47277  87.8976 343.4850 0001883 102.8762 257.2577 13.12442156269424
ONEWEB-0132             
1 47278U 20100W   26203.81803907 -.00000155  00000+0 -46648-3 0  9993
2 47278  87.8972 343.5876 0001829  99.5946 260.5390 13.12443888269250
ONEWEB-0133             
1 47279U 20100X   26203.83483536  .00000419  00000+0  11283-2 0  9995
2 47279  87.8984 343.5644 0001844 102.0404 258.0931 13.12444797269414
ONEWEB-0134             
1 47280U 20100Y   26203.34706182 -.00000339  00000+0 -97663-3 0  9998
2 47280  87.8984 343.6581 0002096 101.0587 259.0778 13.12443432269323
ONEWEB-0135             
1 47281U 20100Z   26204.30934525  .00000338  00000+0  90545-3 0  9999
2 47281  87.8972 343.4853 0002065 105.4367 254.6990 13.12442312269470
ONEWEB-0136             
1 47282U 20100AA  26204.32797750 -.00000151  00000+0 -45371-3 0  9991
2 47282  87.8978 343.4662 0002188 100.7119 259.4256 13.12442763269405
ONEWEB-0137             
1 47283U 20100AB  26203.29454117  .00000418  00000+0  11266-2 0  9993
2 47283  87.8984 343.6830 0001775  93.6253 266.5079 13.12444548269171
ONEWEB-0138             
1 47284U 20100AC  26203.80617947 -.00000407  00000+0 -11658-2 0  9998
2 47284  87.8982 343.5853 0002063  98.7938 261.3425 13.12443337269321
ONEWEB-0139             
1 47285U 20100AD  26203.84699361  .00000425  00000+0  11455-2 0  9996
2 47285  87.8984 343.5648 0001859  92.5891 267.5451 13.12442091269400
ONEWEB-0140             
1 47286U 20100AE  26203.64862052 -.00000353  00000+0 -10177-2 0  9996
2 47286  87.8983 343.5943 0001823 102.7275 257.4057 13.12443150269349
ONEWEB-0141             
1 47287U 20100AF  26204.15164787  .00000397  00000+0  10676-2 0  9994
2 47287  87.8982 343.4994 0001770  88.3383 271.7948 13.12443030269394
ONEWEB-0142             
1 47288U 20100AG  26203.83511663  .00000382  00000+0  10276-2 0  9998
2 47288  87.8975 343.5812 0002059  86.2054 273.9310 13.12444505269340
ONEWEB-0143             
1 47289U 20100AH  26203.69267337  .00000376  00000+0  10086-2 0  9991
2 47289  87.8975 343.6095 0001820  96.9965 263.1371 13.12442805269304
ONEWEB-0144             
1 47290U 20100AJ  26203.81634803 -.00000152  00000+0 -45742-3 0  9995
2 47290  87.8984 343.5614 0002207  95.0094 265.1287 13.12444096269240
ONEWEB-0145             
1 47291U 20100AK  26204.32120412 -.00000022  00000+0 -96715-4 0  9992
2 47291  87.8972 343.4851 0001919  95.9502 264.1845 13.12441932269506
ONEWEB-0146             
1 47292U 20100AL  26204.31781792  .00000017  00000+0  11727-4 0  9998
2 47292  87.8975 343.4792 0001619 102.6777 257.4533 13.12442524269418
ONEWEB-0147             
1 47293U 20100AM  26203.82650996  .00000221  00000+0  57758-3 0  9995
2 47293  87.8981 343.5599 0001927 101.4311 258.7035 13.12444617269242
YAOGAN-33 01            
1 47302U 20103A   26204.30774569  .00000333  00000+0  80881-4 0  9994
2 47302  98.0367  84.7295 0003369  35.8743 324.2683 14.58734652296579
WEINA 2                 
1 47303U 20103B   26204.29124728  .00000799  00000+0  15751-3 0  9998
2 47303  98.0487  92.7201 0003762  82.6110 277.5521 14.65093540297017
TURKSAT 5A              
1 47306U 21001A   26203.89051778  .00000158  00000+0  00000+0 0  9994
2 47306   0.0181  77.6342 0000180   2.0103 212.4832  1.00272545 20321
TIANTONG-1 3            
1 47321U 21003A   26203.77302525 -.00000148  00000+0  00000+0 0  9999
2 47321   1.7303 341.5476 0003346 143.1913 175.5529  1.00270111 20314
GMS-T                   
1 47346U 21004A   26204.10849747  .00000019  00000+0  28766-4 0  9997
2 47346  90.1268 242.2723 0001414 356.1485   3.9636 13.16657200264321
STARLINK-2017           
1 47351U 21005C   26204.19429066  .00006389  00000+0  21728-3 0  9997
2 47351  53.1587 103.1520 0001246  94.9104 265.2040 15.31727849304488
STARLINK-2034           
1 47352U 21005D   26204.25016833  .00008194  00000+0  27524-3 0  9995
2 47352  53.1573 141.9588 0001303  98.6850 261.4299 15.31732221303945
STARLINK-2045           
1 47353U 21005E   26203.38890134  .00000530  00000+0  28844-4 0  9996
2 47353  53.1602  93.8966 0001358  95.0362 265.0795 15.31706959304540
STARLINK-2046           
1 47354U 21005F   26203.73027932  .00003305  00000+0  11821-3 0  9993
2 47354  53.1606 115.6324 0001580 123.0985 237.0168 15.31704491304267
STARLINK-2047           
1 47355U 21005G   26204.08606551  .00001429  00000+0  57770-4 0  9992
2 47355  53.1605 100.9870 0001434 105.6408 254.4752 15.31719411304499
STARLINK-2049           
1 47356U 21005H   26204.00834671  .00005152  00000+0  17755-3 0  9996
2 47356  53.1597 127.3302 0001299  94.4231 265.6919 15.31725808304116
STARLINK-2050           
1 47357U 21005J   26204.25751855 -.00001175  00000+0 -26054-4 0  9992
2 47357  53.1602 152.0831 0001343  91.9482 268.1674 15.31737683303799
STARLINK-2055           
1 47358U 21005K   26204.17590738  .00035830  00000+0  11039-2 0  9993
2 47358  53.1578 126.8247 0002823  83.5404 276.5919 15.33306465304133
STARLINK-2071           
1 47361U 21005N   26204.20016720 -.00000333  00000+0  10471-5 0  9998
2 47361  53.1595 126.9019 0001223  76.4177 283.6961 15.31708403304137
STARLINK-2076           
1 47362U 21005P   26204.12557377  .00046869  00000+0  11956-2 0  9997
2 47362  53.1558 149.9409 0006215  55.2361 304.9228 15.39061224303819
STARLINK-2081           
1 47366U 21005T   26204.12199554  .00001168  00000+0  49377-4 0  9993
2 47366  53.1595 152.4214 0001275  88.7954 271.3194 15.31718170303772
STARLINK-2082           
1 47367U 21005U   26204.28513795  .00007259  00000+0  24524-3 0  9991
2 47367  53.1573 151.7390 0001375  74.0647 286.0506 15.31728255303803
STARLINK-2084           
1 47368U 21005V   26204.26214367  .00006380  00000+0  21699-3 0  9997
2 47368  53.1586 151.6847 0001216  83.9678 276.1463 15.31726598303801
STARLINK-2088           
1 47371U 21005Y   26204.13682084  .00005506  00000+0  18889-3 0  9998
2 47371  53.1585 156.1091 0001197  97.0583 263.0554 15.31727004303724
STARLINK-2092           
1 47373U 21005AA  26204.27112542  .00004971  00000+0  17170-3 0  9999
2 47373  53.1578 151.6272 0001186  88.1735 271.9402 15.31729191303805
STARLINK-2094           
1 47375U 21005AC  26204.23385404  .00008008  00000+0  26941-3 0  9997
2 47375  53.1583 151.8317 0001417  88.8580 271.2584 15.31715896303796
STARLINK-2096           
1 47376U 21005AD  26204.23850814  .00002904  00000+0  10525-3 0  9990
2 47376  53.1599 151.8208 0001694  66.8018 293.3162 15.31720242303790
STARLINK-2097           
1 47377U 21005AE  26204.27230625  .00004259  00000+0  14882-3 0  9992
2 47377  53.1590 155.4138 0001118  81.7496 278.3633 15.31724841303741
STARLINK-2098           
1 47378U 21005AF  26204.03591059  .00002141  00000+0  80710-4 0  9990
2 47378  53.1593 104.4024 0001423  80.3812 279.7351 15.31708706304452
STARLINK-2099           
1 47379U 21005AG  26204.11039188 -.00000470  00000+0 -33728-5 0  9993
2 47379  53.1589 103.4265 0001194  86.7958 273.3180 15.31707354304470
STARLINK-2100           
1 47380U 21005AH  26204.33335648  .00426305  85995-4  95338-3 0  9990
2 47380  53.0455  86.6022 0003150 164.4405 280.3083 15.97261455  6042
STARLINK-2101           
1 47381U 21005AJ  26204.05101739  .00002926  00000+0  10595-3 0  9992
2 47381  53.1591 127.5792 0001245  91.3715 268.7429 15.31723031304124
STARLINK-2102           
1 47382U 21005AK  26204.03889432  .00001388  00000+0  56437-4 0  9991
2 47382  53.1584 116.7568 0000814  92.1208 267.9887 15.31724181304277
STARLINK-2103           
1 47383U 21005AL  26204.12876990  .00035804  00000+0  95323-3 0  9993
2 47383  53.1564 102.3351 0005172  83.9823 276.1770 15.37875687304491
STARLINK-2104           
1 47384U 21005AM  26204.10229691 -.00001817  00000+0 -46801-4 0  9999
2 47384  53.1607 127.3537 0001242  94.0510 266.0633 15.31700098304126
STARLINK-2105           
1 47385U 21005AN  26204.02700506  .00002945  00000+0  10657-3 0  9990
2 47385  53.1570 127.3621 0001319  90.4982 269.6171 15.31719921304118
STARLINK-2106           
1 47386U 21005AP  26204.02306219  .00005240  00000+0  18041-3 0  9990
2 47386  53.1617 127.7349 0001632  99.1959 260.9227 15.31717552304114
STARLINK-2109           
1 47388U 21005AR  26204.10885074  .00008461  00000+0  28391-3 0  9999
2 47388  53.1581 156.1747 0001367  95.1286 264.9871 15.31722120303719
STARLINK-2110           
1 47389U 21005AS  26204.02496964  .00043996  00000+0  13236-2 0  9990
2 47389  53.1543 126.7372 0001381  95.8540 264.2620 15.33967904304136
STARLINK-2111           
1 47390U 21005AT  26204.28129740  .00005597  00000+0  19184-3 0  9999
2 47390  53.1571 155.4238 0001318  86.7619 273.3533 15.31727032303749
STARLINK-2112           
1 47391U 21005AU  26204.24028657  .00019191  00000+0  10766-2 0  9992
2 47391  53.0660 139.4604 0002866  47.2705 312.8528 15.13394347303948
STARLINK-2113           
1 47392U 21005AV  26204.09231690  .01264481  11634-2  92653-3 0  9998
2 47392  53.0330  59.4709 0005241 265.6219  94.4218 16.15263180305041
STARLINK-2119           
1 47397U 21005BA  26204.27640109  .00057687  00000+0  15554-2 0  9995
2 47397  53.1555 150.4022 0006159  68.0939 292.0719 15.37262154303828
STARLINK-2121           
1 47399U 21005BC  26204.05491327 -.00001109  00000+0 -23959-4 0  9999
2 47399  53.1572 126.8370 0001110 107.4409 252.6714 15.31724741304135
STARLINK-2122           
1 47400U 21005BD  26203.46254663  .00001504  00000+0  60194-4 0  9995
2 47400  53.1592 106.4285 0001190 103.6353 256.4781 15.31708658304374
